start=new Date('2022-06-13T00:00:00.000Z').valueOf();
sats=[{"OBJECT_NAME":"STARLINK-2220","RCS_SIZE":"LARGE","REF_FRAME":"TEME","REV_AT_EPOCH":"5916","TIME_SYSTEM":"UTC","INCLINATION":"53.0549","OBJECT_TYPE":"PAYLOAD","CLASSIFICATION_TYPE":"U","MEAN_MOTION_DOT":"0.00001076","ARG_OF_PERICENTER":"60.0617","EPHEMERIS_TYPE":"0","ECCENTRICITY":"0.00019080","NORAD_CAT_ID":"48570","SEMIMAJOR_AXIS":"6925.333","LAUNCH_DATE":"2021-05-15","PERIAPSIS":"545.877","OBJECT_ID":"2021-041T","TLE_LINE1":"1 48570U 21041T   22163.66866335  .00001076  00000-0  91099-4 0  9995","SITE":"AFETR","COUNTRY_CODE":"US","GP_ID":"206014763","DECAY_DATE":null,"EPOCH":"2022-06-12T16:02:52.513440","ELEMENT_SET_NO":"999","CENTER_NAME":"EARTH","MEAN_MOTION_DDOT":"0.0000000000000","MEAN_ANOMALY":"300.0562","PERIOD":"95.592","BSTAR":"0.00009109900000","FILE":"3493781","MEAN_ELEMENT_THEORY":"SGP4","TLE_LINE2":"2 48570  53.0549 153.9253 0001908  60.0617 300.0562 15.06404954 59163","MEAN_MOTION":"15.06404954","RA_OF_ASC_NODE":"153.9253","APOAPSIS":"548.520"},{"RCS_SIZE":"LARGE","OBJECT_NAME":"STARLINK-2221","INCLINATION":"53.0542","TIME_SYSTEM":"UTC","REV_AT_EPOCH":"5917","REF_FRAME":"TEME","ARG_OF_PERICENTER":"65.7067","MEAN_MOTION_DOT":"-0.00001120","CLASSIFICATION_TYPE":"U","OBJECT_TYPE":"PAYLOAD","ECCENTRICITY":"0.00019200","EPHEMERIS_TYPE":"0","NORAD_CAT_ID":"48571","SEMIMAJOR_AXIS":"6925.388","TLE_LINE1":"1 48571U 21041U   22163.67604422 -.00001120  00000-0 -56341-4 0  9997","LAUNCH_DATE":"2021-05-15","PERIAPSIS":"545.923","OBJECT_ID":"2021-041U","SITE":"AFETR","GP_ID":"206015009","COUNTRY_CODE":"US","DECAY_DATE":null,"ELEMENT_SET_NO":"999","EPOCH":"2022-06-12T16:13:30.220608","PERIOD":"95.593","MEAN_ANOMALY":"294.4122","BSTAR":"-0.00005634100000","MEAN_MOTION_DDOT":"0.0000000000000","CENTER_NAME":"EARTH","TLE_LINE2":"2 48571  53.0542 153.9029 0001920  65.7067 294.4122 15.06387084 59176","MEAN_ELEMENT_THEORY":"SGP4","FILE":"3493781","MEAN_MOTION":"15.06387084","APOAPSIS":"548.583","RA_OF_ASC_NODE":"153.9029"},{"OBJECT_TYPE":"PAYLOAD","CLASSIFICATION_TYPE":"U","ARG_OF_PERICENTER":"67.9003","MEAN_MOTION_DOT":"0.00001400","RCS_SIZE":"LARGE","OBJECT_NAME":"STARLINK-2222","REV_AT_EPOCH":"5917","TIME_SYSTEM":"UTC","REF_FRAME":"TEME","INCLINATION":"53.0534","SEMIMAJOR_AXIS":"6925.339","OBJECT_ID":"2021-041V","LAUNCH_DATE":"2021-05-15","PERIAPSIS":"546.033","TLE_LINE1":"1 48572U 21041V   22163.67234020  .00001400  00000-0  11286-3 0  9998","EPHEMERIS_TYPE":"0","ECCENTRICITY":"0.00016910","NORAD_CAT_ID":"48572","DECAY_DATE":null,"EPOCH":"2022-06-12T16:08:10.193280","ELEMENT_SET_NO":"999","SITE":"AFETR","COUNTRY_CODE":"US","GP_ID":"206013763","MEAN_MOTION":"15.06403148","APOAPSIS":"548.375","RA_OF_ASC_NODE":"153.9126","MEAN_MOTION_DDOT":"0.0000000000000","CENTER_NAME":"EARTH","PERIOD":"95.592","MEAN_ANOMALY":"292.2165","BSTAR":"0.00011286000000","MEAN_ELEMENT_THEORY":"SGP4","FILE":"3493781","TLE_LINE2":"2 48572  53.0534 153.9126 0001691  67.9003 292.2165 15.06403148 59178"},{"ARG_OF_PERICENTER":"60.4378","MEAN_MOTION_DOT":"-0.00000307","CLASSIFICATION_TYPE":"U","OBJECT_TYPE":"PAYLOAD","INCLINATION":"53.0537","REV_AT_EPOCH":"5934","TIME_SYSTEM":"UTC","REF_FRAME":"TEME","RCS_SIZE":"LARGE","OBJECT_NAME":"STARLINK-2224","TLE_LINE1":"1 48573U 21041W   22163.91654005 -.00000307  00000-0 -17254-5 0  9995","LAUNCH_DATE":"2021-05-15","OBJECT_ID":"2021-041W","PERIAPSIS":"545.769","SEMIMAJOR_AXIS":"6925.341","NORAD_CAT_ID":"48573","ECCENTRICITY":"0.00020740","EPHEMERIS_TYPE":"0","ELEMENT_SET_NO":"999","EPOCH":"2022-06-12T21:59:49.060320","DECAY_DATE":null,"COUNTRY_CODE":"US","GP_ID":"206014013","SITE":"AFETR","APOAPSIS":"548.642","RA_OF_ASC_NODE":"142.8009","MEAN_MOTION":"15.06402577","TLE_LINE2":"2 48573  53.0537 142.8009 0002074  60.4378 299.6817 15.06402577 59347","MEAN_ELEMENT_THEORY":"SGP4","FILE":"3493781","PERIOD":"95.592","MEAN_ANOMALY":"299.6817","BSTAR":"-0.00000172540000","MEAN_MOTION_DDOT":"0.0000000000000","CENTER_NAME":"EARTH"},{"MEAN_MOTION":"15.06391501","APOAPSIS":"548.701","RA_OF_ASC_NODE":"114.5215","PERIOD":"95.593","MEAN_ANOMALY":"304.4087","BSTAR":"-0.00007643400000","MEAN_MOTION_DDOT":"0.0000000000000","CENTER_NAME":"EARTH","TLE_LINE2":"2 48574  53.0557 114.5215 0002110  55.7101 304.4087 15.06391501 59716","MEAN_ELEMENT_THEORY":"SGP4","FILE":"3493305","DECAY_DATE":null,"ELEMENT_SET_NO":"999","EPOCH":"2022-06-12T13:18:21.299616","SITE":"AFETR","GP_ID":"205977399","COUNTRY_CODE":"US","SEMIMAJOR_AXIS":"6925.375","TLE_LINE1":"1 48574U 21041X   22163.55441319 -.00001420  00000-0 -76434-4 0  9999","LAUNCH_DATE":"2021-05-15","PERIAPSIS":"545.778","OBJECT_ID":"2021-041X","ECCENTRICITY":"0.00021100","EPHEMERIS_TYPE":"0","NORAD_CAT_ID":"48574","ARG_OF_PERICENTER":"55.7101","MEAN_MOTION_DOT":"-0.00001420","OBJECT_TYPE":"PAYLOAD","CLASSIFICATION_TYPE":"U","RCS_SIZE":"LARGE","OBJECT_NAME":"STARLINK-2225","INCLINATION":"53.0557","TIME_SYSTEM":"UTC","REV_AT_EPOCH":"5971","REF_FRAME":"TEME"},{"MEAN_MOTION":"15.05760771","RA_OF_ASC_NODE":"104.6835","APOAPSIS":"550.379","MEAN_ANOMALY":"310.6916","PERIOD":"95.633","BSTAR":"0.00736260000000","CENTER_NAME":"EARTH","MEAN_MOTION_DDOT":"0.0000000000000","TLE_LINE2":"2 48575  53.0545 104.6835 0001741  49.4224 310.6916 15.05760771 59861","FILE":"3493781","MEAN_ELEMENT_THEORY":"SGP4","DECAY_DATE":null,"EPOCH":"2022-06-12T13:40:44.501664","ELEMENT_SET_NO":"999","SITE":"AFETR","COUNTRY_CODE":"US","GP_ID":"206015510","SEMIMAJOR_AXIS":"6927.308","TLE_LINE1":"1 48575U 21041Y   22163.56995951  .00109195  00000-0  73626-2 0  9991","LAUNCH_DATE":"2021-05-15","OBJECT_ID":"2021-041Y","PERIAPSIS":"547.967","ECCENTRICITY":"0.00017410","EPHEMERIS_TYPE":"0","NORAD_CAT_ID":"48575","MEAN_MOTION_DOT":"0.00109195","ARG_OF_PERICENTER":"49.4224","CLASSIFICATION_TYPE":"U","OBJECT_TYPE":"PAYLOAD","OBJECT_NAME":"STARLINK-2227","RCS_SIZE":"LARGE","INCLINATION":"53.0545","REF_FRAME":"TEME","REV_AT_EPOCH":"5986","TIME_SYSTEM":"UTC"},{"DECAY_DATE":null,"ELEMENT_SET_NO":"999","EPOCH":"2022-06-12T21:39:14.644512","SITE":"AFETR","COUNTRY_CODE":"US","GP_ID":"206014264","MEAN_MOTION":"15.06400244","APOAPSIS":"548.929","RA_OF_ASC_NODE":"117.8425","MEAN_MOTION_DDOT":"0.0000000000000","CENTER_NAME":"EARTH","BSTAR":"-0.00002008800000","PERIOD":"95.592","MEAN_ANOMALY":"298.6879","MEAN_ELEMENT_THEORY":"SGP4","FILE":"3493781","TLE_LINE2":"2 48576  53.0590 117.8425 0002478  61.4359 298.6879 15.06400244 59707","OBJECT_TYPE":"PAYLOAD","CLASSIFICATION_TYPE":"U","ARG_OF_PERICENTER":"61.4359","MEAN_MOTION_DOT":"-0.00000581","RCS_SIZE":"LARGE","OBJECT_NAME":"STARLINK-2228","TIME_SYSTEM":"UTC","REV_AT_EPOCH":"5970","REF_FRAME":"TEME","INCLINATION":"53.0590","SEMIMAJOR_AXIS":"6925.348","PERIAPSIS":"545.497","LAUNCH_DATE":"2021-05-15","OBJECT_ID":"2021-041Z","TLE_LINE1":"1 48576U 21041Z   22163.90225283 -.00000581  00000-0 -20088-4 0  9991","EPHEMERIS_TYPE":"0","ECCENTRICITY":"0.00024780","NORAD_CAT_ID":"48576"},{"LAUNCH_DATE":"2021-05-15","PERIAPSIS":"545.829","OBJECT_ID":"2021-041AA","TLE_LINE1":"1 48577U 21041AA  22163.90916644  .00000561  00000-0  56551-4 0  9990","SEMIMAJOR_AXIS":"6925.353","NORAD_CAT_ID":"48577","EPHEMERIS_TYPE":"0","ECCENTRICITY":"0.00020060","CLASSIFICATION_TYPE":"U","OBJECT_TYPE":"PAYLOAD","MEAN_MOTION_DOT":"0.00000561","ARG_OF_PERICENTER":"62.5235","REF_FRAME":"TEME","REV_AT_EPOCH":"5934","TIME_SYSTEM":"UTC","INCLINATION":"53.0532","OBJECT_NAME":"STARLINK-2231","RCS_SIZE":"LARGE","RA_OF_ASC_NODE":"142.8388","APOAPSIS":"548.607","MEAN_MOTION":"15.06398599","FILE":"3493781","MEAN_ELEMENT_THEORY":"SGP4","TLE_LINE2":"2 48577  53.0532 142.8388 0002006  62.5235 297.5958 15.06398599 59347","CENTER_NAME":"EARTH","MEAN_MOTION_DDOT":"0.0000000000000","BSTAR":"0.00005655100000","PERIOD":"95.592","MEAN_ANOMALY":"297.5958","ELEMENT_SET_NO":"999","EPOCH":"2022-06-12T21:49:11.980416","DECAY_DATE":null,"GP_ID":"206014514","COUNTRY_CODE":"US","SITE":"AFETR"},{"CENTER_NAME":"EARTH","MEAN_MOTION_DDOT":"0.0000000000000","MEAN_ANOMALY":"301.0486","PERIOD":"95.592","BSTAR":"-0.00010464000000","FILE":"3493781","MEAN_ELEMENT_THEORY":"SGP4","TLE_LINE2":"2 48578  53.0545 144.4168 0001585  59.0659 301.0486 15.06408516 59302","MEAN_MOTION":"15.06408516","RA_OF_ASC_NODE":"144.4168","APOAPSIS":"548.285","SITE":"AFETR","COUNTRY_CODE":"US","GP_ID":"206014764","DECAY_DATE":null,"EPOCH":"2022-06-12T16:09:35.827776","ELEMENT_SET_NO":"999","EPHEMERIS_TYPE":"0","ECCENTRICITY":"0.00015850","NORAD_CAT_ID":"48578","SEMIMAJOR_AXIS":"6925.322","LAUNCH_DATE":"2021-05-15","OBJECT_ID":"2021-041AB","PERIAPSIS":"546.090","TLE_LINE1":"1 48578U 21041AB  22163.67333134 -.00001840  00000-0 -10464-3 0  9997","OBJECT_NAME":"STARLINK-2232","RCS_SIZE":"LARGE","REF_FRAME":"TEME","TIME_SYSTEM":"UTC","REV_AT_EPOCH":"5930","INCLINATION":"53.0545","CLASSIFICATION_TYPE":"U","OBJECT_TYPE":"PAYLOAD","MEAN_MOTION_DOT":"-0.00001840","ARG_OF_PERICENTER":"59.0659"},{"DECAY_DATE":null,"EPOCH":"2022-06-12T10:24:29.831904","ELEMENT_SET_NO":"999","SITE":"AFETR","COUNTRY_CODE":"US","GP_ID":"205978150","MEAN_MOTION":"15.06400161","APOAPSIS":"548.503","RA_OF_ASC_NODE":"144.9876","MEAN_MOTION_DDOT":"0.0000000000000","CENTER_NAME":"EARTH","PERIOD":"95.592","BSTAR":"-0.00000192110000","MEAN_ANOMALY":"304.1815","MEAN_ELEMENT_THEORY":"SGP4","FILE":"3493305","TLE_LINE2":"2 48579  53.0540 144.9876 0001862  55.9351 304.1815 15.06400161 59275","CLASSIFICATION_TYPE":"U","OBJECT_TYPE":"PAYLOAD","ARG_OF_PERICENTER":"55.9351","MEAN_MOTION_DOT":"-0.00000310","RCS_SIZE":"LARGE","OBJECT_NAME":"STARLINK-2233","REV_AT_EPOCH":"5927","TIME_SYSTEM":"UTC","REF_FRAME":"TEME","INCLINATION":"53.0540","SEMIMAJOR_AXIS":"6925.348","LAUNCH_DATE":"2021-05-15","PERIAPSIS":"545.924","OBJECT_ID":"2021-041AC","TLE_LINE1":"1 48579U 21041AC  22163.43367861 -.00000310  00000-0 -19211-5 0  9998","EPHEMERIS_TYPE":"0","ECCENTRICITY":"0.00018620","NORAD_CAT_ID":"48579"}];
